{
    "links": {
        "self": "http://www.neowsapp.com/rest/v1/neo/3670037?api_key=iIulBulltgU6a56xZRHN4H3l9WmuAYTsLGpBGhQ2"
    },
    "id": "3670037",
    "neo_reference_id": "3670037",
    "name": "(2014 HA165)",
    "designation": "2014 HA165",
    "nasa_jpl_url": "http://ssd.jpl.nasa.gov/sbdb.cgi?sstr=3670037",
    "absolute_magnitude_h": 23.1,
    "estimated_diameter": {
        "kilometers": {
            "estimated_diameter_min": 0.063760979,
            "estimated_diameter_max": 0.1425738833
        },
        "meters": {
            "estimated_diameter_min": 63.7609789875,
            "estimated_diameter_max": 142.5738833281
        },
        "miles": {
            "estimated_diameter_min": 0.0396192233,
            "estimated_diameter_max": 0.0885912765
        },
        "feet": {
            "estimated_diameter_min": 209.1895703015,
            "estimated_diameter_max": 467.7620993781
        }
    },
    "is_potentially_hazardous_asteroid": false,
    "close_approach_data": [
        {
            "close_approach_date": "2014-04-05",
            "close_approach_date_full": "2014-Apr-05 08:26",
            "epoch_date_close_approach": 1396686360000,
            "relative_velocity": {
                "kilometers_per_second": "8.254164168",
                "kilometers_per_hour": "29714.9910047574",
                "miles_per_hour": "18463.7398273727"
            },
            "miss_distance": {
                "astronomical": "0.1109380887",
                "lunar": "43.1549165043",
                "kilometers": "16596101.771391069",
                "miles": "10312339.4512079922"
            },
            "orbiting_body": "Earth"
        }
    ],
    "orbital_data": {
        "orbit_id": "8",
        "orbit_determination_date": "2017-04-06 08:41:18",
        "first_observation_date": "2014-04-29",
        "last_observation_date": "2014-05-26",
        "data_arc_in_days": 27,
        "observations_used": 28,
        "orbit_uncertainty": "8",
        "minimum_orbit_intersection": ".0916453",
        "jupiter_tisserand_invariant": "3.205",
        "epoch_osculation": "2456781.5",
        "eccentricity": ".5891803491605044",
        "semi_major_axis": "2.485107053828094",
        "inclination": "5.497434239509718",
        "ascending_node_longitude": "103.0895034763131",
        "orbital_period": "1430.922392437927",
        "perihelion_distance": "1.020930812152425",
        "perihelion_argument": "71.7768494757635",
        "aphelion_distance": "3.949283295503762",
        "perihelion_time": "2456737.239629867532",
        "mean_anomaly": "11.1352882112226",
        "mean_motion": ".251585971330459",
        "equinox": "J2000",
        "orbit_class": {
            "orbit_class_type": "AMO",
            "orbit_class_description": "Near-Earth asteroid orbits similar to that of 1221 Amor",
            "orbit_class_range": "1.017 AU < q (perihelion) < 1.3 AU"
        }
    },
    "is_sentry_object": false
}